OBJECT_NAME,OBJECT_ID,EPOCH,MEAN_MOTION,ECCENTRICITY,INCLINATION,RA_OF_ASC_NODE,ARG_OF_PERICENTER,MEAN_ANOMALY,EPHEMERIS_TYPE,CLASSIFICATION_TYPE,NORAD_CAT_ID,ELEMENT_SET_NO,REV_AT_EPOCH,BSTAR,MEAN_MOTION_DOT,MEAN_MOTION_DDOT
SPACEMOBILE-003,2024-163A,2026-07-18T04:05:59.019072,15.20713856,.00044615,52.9670,166.9598,203.3197,156.7595,0,U,61045,999,10248,.71564826E-4,.1268E-4,0
SPACEMOBILE-005,2024-163B,2026-07-18T06:51:23.658336,15.20722937,.00085608,52.9757,166.3840,205.2960,154.7616,0,U,61046,999,10249,.11125988E-3,.2152E-4,0
SPACEMOBILE-001,2024-163C,2026-07-18T03:39:43.074432,15.20705143,.00067837,52.9727,166.7053,200.9381,159.1336,0,U,61047,999,10247,.19358543E-4,.103E-5,0
SPACEMOBILE-002,2024-163D,2026-07-18T06:25:45.243264,15.20679207,.00054138,52.9785,166.2157,203.1224,156.9528,0,U,61048,999,10249,-.42131939E-3,-.9691E-4,0
SPACEMOBILE-004,2024-163E,2026-07-17T22:07:22.216224,15.20759542,.00057873,52.9683,167.5779,225.7382,134.3138,0,U,61049,999,10244,.53167416E-3,.11552E-3,0
SPACEMOBILE-006,2025-309A,2026-07-18T08:52:28.491744,15.18663329,.00097856,52.9937,188.7910,226.0321,133.9866,0,U,67232,999,3133,.81418095E-4,.1388E-4,0
SPACEMOBILE-008,2026-139A,2026-07-18T04:36:15.598080,15.12804576,.0005199,52.9950,121.8023,63.4511,296.7013,0,U,69589,999,467,.37209981E-4,.359E-5,0
SPACEMOBILE-009,2026-139B,2026-07-18T01:29:06.470880,15.12697857,.0005388,52.9941,122.4098,59.4835,300.6687,0,U,69590,999,465,.36982011E-4,.354E-5,0
SPACEMOBILE-010,2026-139C,2026-07-18T03:09:11.464416,15.12535619,.00054148,52.9947,122.1344,52.1260,308.0220,0,U,69591,999,467,.81671785E-4,.1139E-4,0
BLUEWALKER-3,2022-111AL,2026-07-18T07:08:03.268320,15.38628548,.00045985,53.2279,247.8770,280.0203,80.0283,0,U,53807,999,21499,.77918739E-4,.2622E-4,0
